[{"OBJECT_NAME":"SKYSAT-A","OBJECT_ID":"2013-066C","EPOCH":"2026-04-25T14:33:59.362848","MEAN_MOTION":15.12661764,"ECCENTRICITY":0.00229043,"INCLINATION":97.3867,"RA_OF_ASC_NODE":166.6784,"ARG_OF_PERICENTER":133.596,"MEAN_ANOMALY":226.7178,"EPHEMERIS_TYPE":0,"CLASSIFICATION_TYPE":"U","NORAD_CAT_ID":39418,"ELEMENT_SET_NO":999,"REV_AT_EPOCH":68053,"BSTAR":0.00018100551,"MEAN_MOTION_DOT":3.121e-5,"MEAN_MOTION_DDOT":0},{"OBJECT_NAME":"SKYSAT-B","OBJECT_ID":"2014-037D","EPOCH":"2026-04-25T20:58:52.869792","MEAN_MOTION":14.87885069,"ECCENTRICITY":0.00070294,"INCLINATION":98.3799,"RA_OF_ASC_NODE":71.8768,"ARG_OF_PERICENTER":88.0192,"MEAN_ANOMALY":272.1827,"EPHEMERIS_TYPE":0,"CLASSIFICATION_TYPE":"U","NORAD_CAT_ID":40072,"ELEMENT_SET_NO":999,"REV_AT_EPOCH":63818,"BSTAR":0.00016425677,"MEAN_MOTION_DOT":1.442e-5,"MEAN_MOTION_DDOT":0},{"OBJECT_NAME":"SKYSAT-C1","OBJECT_ID":"2016-040C","EPOCH":"2026-04-25T15:17:48.400800","MEAN_MOTION":15.35396532,"ECCENTRICITY":0.00024093,"INCLINATION":96.9619,"RA_OF_ASC_NODE":150.2268,"ARG_OF_PERICENTER":165.6923,"MEAN_ANOMALY":194.439,"EPHEMERIS_TYPE":0,"CLASSIFICATION_TYPE":"U","NORAD_CAT_ID":41601,"ELEMENT_SET_NO":999,"REV_AT_EPOCH":54980,"BSTAR":0.00025838285,"MEAN_MOTION_DOT":8.812e-5,"MEAN_MOTION_DDOT":0},{"OBJECT_NAME":"SKYSAT-C4","OBJECT_ID":"2016-058B","EPOCH":"2026-04-25T23:07:25.228416","MEAN_MOTION":15.46949293,"ECCENTRICITY":0.00035269,"INCLINATION":96.9226,"RA_OF_ASC_NODE":139.9736,"ARG_OF_PERICENTER":95.8992,"MEAN_ANOMALY":264.2661,"EPHEMERIS_TYPE":0,"CLASSIFICATION_TYPE":"U","NORAD_CAT_ID":41771,"ELEMENT_SET_NO":999,"REV_AT_EPOCH":53739,"BSTAR":0.0003612457,"MEAN_MOTION_DOT":0.00018142,"MEAN_MOTION_DDOT":0},{"OBJECT_NAME":"SKYSAT-C5","OBJECT_ID":"2016-058C","EPOCH":"2026-04-25T15:50:54.567456","MEAN_MOTION":15.33695202,"ECCENTRICITY":0.00049489,"INCLINATION":97.0528,"RA_OF_ASC_NODE":158.6595,"ARG_OF_PERICENTER":112.6688,"MEAN_ANOMALY":247.5079,"EPHEMERIS_TYPE":0,"CLASSIFICATION_TYPE":"U","NORAD_CAT_ID":41772,"ELEMENT_SET_NO":999,"REV_AT_EPOCH":53569,"BSTAR":0.00023933842,"MEAN_MOTION_DOT":7.727e-5,"MEAN_MOTION_DDOT":0},{"OBJECT_NAME":"SKYSAT-C2","OBJECT_ID":"2016-058D","EPOCH":"2026-04-25T13:07:59.078784","MEAN_MOTION":15.4086427,"ECCENTRICITY":0.00019765,"INCLINATION":97.0221,"RA_OF_ASC_NODE":139.6598,"ARG_OF_PERICENTER":200.0816,"MEAN_ANOMALY":160.0354,"EPHEMERIS_TYPE":0,"CLASSIFICATION_TYPE":"U","NORAD_CAT_ID":41773,"ELEMENT_SET_NO":999,"REV_AT_EPOCH":53694,"BSTAR":0.00027884307,"MEAN_MOTION_DOT":0.00011371,"MEAN_MOTION_DDOT":0},{"OBJECT_NAME":"SKYSAT-C3","OBJECT_ID":"2016-058E","EPOCH":"2026-04-25T15:21:41.953824","MEAN_MOTION":15.50341233,"ECCENTRICITY":0.00027358,"INCLINATION":96.9099,"RA_OF_ASC_NODE":148.569,"ARG_OF_PERICENTER":103.9986,"MEAN_ANOMALY":256.1571,"EPHEMERIS_TYPE":0,"CLASSIFICATION_TYPE":"U","NORAD_CAT_ID":41774,"ELEMENT_SET_NO":999,"REV_AT_EPOCH":53796,"BSTAR":0.00037195015,"MEAN_MOTION_DOT":0.00021037,"MEAN_MOTION_DDOT":0},{"OBJECT_NAME":"SKYSAT-C11","OBJECT_ID":"2017-068A","EPOCH":"2026-04-25T20:31:05.157120","MEAN_MOTION":15.55171984,"ECCENTRICITY":0.00015159,"INCLINATION":97.4284,"RA_OF_ASC_NODE":262.5396,"ARG_OF_PERICENTER":141.8945,"MEAN_ANOMALY":218.2416,"EPHEMERIS_TYPE":0,"CLASSIFICATION_TYPE":"U","NORAD_CAT_ID":42987,"ELEMENT_SET_NO":999,"REV_AT_EPOCH":47510,"BSTAR":0.00044135375,"MEAN_MOTION_DOT":0.0002974,"MEAN_MOTION_DDOT":0},{"OBJECT_NAME":"SKYSAT-C10","OBJECT_ID":"2017-068B","EPOCH":"2026-04-25T20:27:13.502304","MEAN_MOTION":15.33701216,"ECCENTRICITY":0.00016259,"INCLINATION":97.4423,"RA_OF_ASC_NODE":252.251,"ARG_OF_PERICENTER":110.6604,"MEAN_ANOMALY":249.4813,"EPHEMERIS_TYPE":0,"CLASSIFICATION_TYPE":"U","NORAD_CAT_ID":42988,"ELEMENT_SET_NO":999,"REV_AT_EPOCH":47433,"BSTAR":0.00035424656,"MEAN_MOTION_DOT":0.00011469,"MEAN_MOTION_DDOT":0},{"OBJECT_NAME":"SKYSAT-C9","OBJECT_ID":"2017-068C","EPOCH":"2026-04-25T21:32:46.094208","MEAN_MOTION":15.40259219,"ECCENTRICITY":0.00076197,"INCLINATION":97.4345,"RA_OF_ASC_NODE":252.7472,"ARG_OF_PERICENTER":331.9356,"MEAN_ANOMALY":28.1478,"EPHEMERIS_TYPE":0,"CLASSIFICATION_TYPE":"U","NORAD_CAT_ID":42989,"ELEMENT_SET_NO":999,"REV_AT_EPOCH":47470,"BSTAR":0.00035936853,"MEAN_MOTION_DOT":0.00014398,"MEAN_MOTION_DDOT":0},{"OBJECT_NAME":"SKYSAT-C8","OBJECT_ID":"2017-068D","EPOCH":"2026-04-25T20:03:29.777184","MEAN_MOTION":15.35910651,"ECCENTRICITY":0.00011703,"INCLINATION":97.4439,"RA_OF_ASC_NODE":251.8397,"ARG_OF_PERICENTER":111.5117,"MEAN_ANOMALY":248.6252,"EPHEMERIS_TYPE":0,"CLASSIFICATION_TYPE":"U","NORAD_CAT_ID":42990,"ELEMENT_SET_NO":999,"REV_AT_EPOCH":47427,"BSTAR":0.00036407347,"MEAN_MOTION_DOT":0.0001265,"MEAN_MOTION_DDOT":0},{"OBJECT_NAME":"SKYSAT-C7","OBJECT_ID":"2017-068E","EPOCH":"2026-04-25T21:25:16.106592","MEAN_MOTION":15.35853996,"ECCENTRICITY":0.00047028,"INCLINATION":97.4452,"RA_OF_ASC_NODE":252.8833,"ARG_OF_PERICENTER":297.8894,"MEAN_ANOMALY":62.1873,"EPHEMERIS_TYPE":0,"CLASSIFICATION_TYPE":"U","NORAD_CAT_ID":42991,"ELEMENT_SET_NO":999,"REV_AT_EPOCH":47434,"BSTAR":0.00035678797,"MEAN_MOTION_DOT":0.00012376,"MEAN_MOTION_DDOT":0},{"OBJECT_NAME":"SKYSAT-C6","OBJECT_ID":"2017-068F","EPOCH":"2026-04-25T21:27:12.385440","MEAN_MOTION":15.33518427,"ECCENTRICITY":0.00018402,"INCLINATION":97.4485,"RA_OF_ASC_NODE":253.0266,"ARG_OF_PERICENTER":4.0652,"MEAN_ANOMALY":356.0605,"EPHEMERIS_TYPE":0,"CLASSIFICATION_TYPE":"U","NORAD_CAT_ID":42992,"ELEMENT_SET_NO":999,"REV_AT_EPOCH":47430,"BSTAR":0.00034768913,"MEAN_MOTION_DOT":0.0001119,"MEAN_MOTION_DDOT":0},{"OBJECT_NAME":"SKYSAT-C12","OBJECT_ID":"2018-099AR","EPOCH":"2026-04-25T19:12:08.299584","MEAN_MOTION":15.47216514,"ECCENTRICITY":0.00035959,"INCLINATION":96.9313,"RA_OF_ASC_NODE":141.1989,"ARG_OF_PERICENTER":18.4793,"MEAN_ANOMALY":341.6588,"EPHEMERIS_TYPE":0,"CLASSIFICATION_TYPE":"U","NORAD_CAT_ID":43797,"ELEMENT_SET_NO":999,"REV_AT_EPOCH":41375,"BSTAR":0.00033926771,"MEAN_MOTION_DOT":0.00017189,"MEAN_MOTION_DDOT":0},{"OBJECT_NAME":"SKYSAT-C13","OBJECT_ID":"2018-099AW","EPOCH":"2026-04-25T16:03:32.285088","MEAN_MOTION":15.87299192,"ECCENTRICITY":0.00032883,"INCLINATION":96.9273,"RA_OF_ASC_NODE":163.7191,"ARG_OF_PERICENTER":96.3708,"MEAN_ANOMALY":263.7939,"EPHEMERIS_TYPE":0,"CLASSIFICATION_TYPE":"U","NORAD_CAT_ID":43802,"ELEMENT_SET_NO":999,"REV_AT_EPOCH":41459,"BSTAR":0.0005355509,"MEAN_MOTION_DOT":0.0014142,"MEAN_MOTION_DDOT":0},{"OBJECT_NAME":"FLOCK 4Q-16","OBJECT_ID":"2023-174R","EPOCH":"2026-04-25T22:34:32.824416","MEAN_MOTION":15.47007054,"ECCENTRICITY":0.0005295,"INCLINATION":97.3825,"RA_OF_ASC_NODE":202.9336,"ARG_OF_PERICENTER":3.3656,"MEAN_ANOMALY":356.7628,"EPHEMERIS_TYPE":0,"CLASSIFICATION_TYPE":"U","NORAD_CAT_ID":58271,"ELEMENT_SET_NO":999,"REV_AT_EPOCH":13749,"BSTAR":0.00052530273,"MEAN_MOTION_DOT":0.00026499,"MEAN_MOTION_DDOT":0}]
